FENGYUN 1C DEB          
1 31331U 99025BQK 17345.51084698 -.00000164  00000-0 -80159-4 0  9997
2 31331  99.1994   3.3514 0055604 342.9060  17.0230 13.99679841229546
